[{"OBJECT_NAME":"STARLINK-6080","OBJECT_ID":"2023-046V","EPOCH":"2026-03-09T06:43:29.050176","MEAN_MOTION":15.02529038,"ECCENTRICITY":0.00013131,"INCLINATION":43.0031,"RA_OF_ASC_NODE":160.8932,"ARG_OF_PERICENTER":268.5146,"MEAN_ANOMALY":91.5546,"EPHEMERIS_TYPE":0,"CLASSIFICATION_TYPE":"U","NORAD_CAT_ID":56112,"ELEMENT_SET_NO":999,"REV_AT_EPOCH":16200,"BSTAR":-9.3657689e-5,"MEAN_MOTION_DOT":-1.468e-5,"MEAN_MOTION_DDOT":0},{"OBJECT_NAME":"OBJECT G","OBJECT_ID":"2025-292G","EPOCH":"2026-03-09T22:41:34.708704","MEAN_MOTION":15.05879657,"ECCENTRICITY":0.00150455,"INCLINATION":97.6425,"RA_OF_ASC_NODE":145.7524,"ARG_OF_PERICENTER":352.95,"MEAN_ANOMALY":7.1513,"EPHEMERIS_TYPE":0,"CLASSIFICATION_TYPE":"U","NORAD_CAT_ID":66999,"ELEMENT_SET_NO":999,"REV_AT_EPOCH":1351,"BSTAR":0.00047153864,"MEAN_MOTION_DOT":6.807e-5,"MEAN_MOTION_DDOT":0}]
